      2.10          N: GNSS NAV DATA                        RINEX VERSION / TYPE
fic2rin                                 07/25/2022 00:17:38 PGM / RUN BY / DATE
                                                            END OF HEADER
8  22  7 24  1 59 44.0 -.774739310145D-04 -.159161572810D-11  .000000000000D+00
     .580000000000D+02  .671250000000D+02  .437411077070D-08 -.269717208711D+01
     .346824526787D-05  .738209392875D-02  .330060720444D-05  .515356561089D+04
     .718400000000D+04 -.167638063431D-07  .411247768200D+00 -.596046447754D-07
     .963071037283D+00  .317843750000D+03  .167357657107D+00 -.810926635492D-08
     .892894335490D-10  .100000000000D+01  .222000000000D+04  .000000000000D+00
     .240000000000D+01  .000000000000D+00  .512227416039D-08  .580000000000D+02
     .000000000000D+00  .400000000000D+01
18 22  7 24  8  0  0.0  .103832688183D-03 -.115960574476D-10  .000000000000D+00
     .101000000000D+03 -.830312500000D+02  .417660254369D-08 -.138541301590D+01
    -.427104532719D-05  .259707111400D-02  .401772558689D-05  .515372986794D+04
     .288000000000D+05 -.726431608200D-07  .150023346949D+01 -.204890966415D-07
     .971785710501D+00  .308375000000D+03  .301581799377D+01 -.804104922769D-08
    -.224295057075D-09  .100000000000D+01  .222000000000D+04  .000000000000D+00
     .240000000000D+01  .000000000000D+00 -.838190317154D-08  .613000000000D+03
     .216000000000D+05  .400000000000D+01
28 22  7 24  8  0  0.0  .336932018399D-03  .295585778076D-11  .000000000000D+00
     .116000000000D+03  .665937500000D+02  .438589697593D-08  .948794245660D+00
     .334717333317D-05  .164919500239D-01  .896491110325D-05  .515367556763D+04
     .288000000000D+05 -.160187482834D-06 -.520515823013D+00 -.331550836563D-06
     .967767463674D+00  .214375000000D+03 -.127331056462D+01 -.803783480808D-08
    -.112504686272D-09  .100000000000D+01  .222000000000D+04  .000000000000D+00
     .240000000000D+01  .630000000000D+02 -.111758708954D-07  .116000000000D+03
     .216000000000D+05  .400000000000D+01
15 22  7 24  7 59 44.0 -.429400242865D-04  .306954461848D-11  .000000000000D+00
     .170000000000D+02  .256250000000D+01  .532557897460D-08 -.484060447221D+00
     .355765223503D-06  .142857844476D-01  .725500285625D-05  .515358518219D+04
     .287840000000D+05 -.465661287308D-07 -.283818078436D+01  .199303030968D-06
     .930903208129D+00  .226375000000D+03  .110770505620D+01 -.855642783814D-08
     .481448625696D-09  .100000000000D+01  .222000000000D+04  .000000000000D+00
     .240000000000D+01  .000000000000D+00 -.107102096081D-07  .170000000000D+02
     .216900000000D+05  .400000000000D+01
11 22  7 24  8 29 36.0 -.103814527392D-04  .113686837722D-12  .000000000000D+00
     .126000000000D+03 -.747187500000D+02  .448947271884D-08  .663557563859D+00
    -.403262674809D-05  .579016515985D-03  .334344804287D-05  .515361109924D+04
     .305760000000D+05  .372529029846D-08  .153483121289D+01  .931322574615D-08
     .963180198767D+00  .315843750000D+03  .291343512925D+01 -.822284251440D-08
    -.271082720255D-09  .100000000000D+01  .222000000000D+04  .000000000000D+00
     .240000000000D+01  .000000000000D+00 -.838190317154D-08  .126000000000D+03
     .234000000000D+05  .400000000000D+01
2  22  7 24  7 59 44.0 -.650789123029D-03  .795807864051D-12  .000000000000D+00
     .150000000000D+02 -.619062500000D+02  .448590114150D-08 -.166389795041D+01
    -.298023223877D-05  .199618343031D-01  .341422855854D-05  .515486892509D+04
     .287840000000D+05 -.782310962677D-07  .140213567635D+01  .530853867531D-06
     .965992641219D+00  .317187500000D+03 -.140292938255D+01 -.818105505950D-08
    -.296798077117D-09  .100000000000D+01  .222000000000D+04  .000000000000D+00
     .240000000000D+01  .000000000000D+00 -.172294676304D-07  .150000000000D+02
     .271200000000D+05  .400000000000D+01
9  22  7 24  7 59 44.0 -.315835699439D-03  .397903932026D-11  .000000000000D+00
     .500000000000D+01  .206250000000D+01  .466948021688D-08  .970822292634D+00
     .130385160446D-06  .226471514907D-02  .721402466297D-05  .515378651810D+04
     .287840000000D+05 -.335276126862D-07 -.272796843495D+01 -.521540641785D-07
     .954847080916D+00  .235187500000D+03  .190415207955D+01 -.804640659370D-08
     .477162732886D-09  .100000000000D+01  .222000000000D+04  .000000000000D+00
     .240000000000D+01  .000000000000D+00  .139698386192D-08  .500000000000D+01
     .273600000000D+05  .400000000000D+01
31 22  7 24  7 59 44.0 -.186961144209D-03 -.147792889038D-11  .000000000000D+00
     .800000000000D+01  .906250000000D+00  .485234497679D-08 -.290494076125D+01
    -.223517417908D-07  .104656306794D-01  .745244324207D-05  .515377507973D+04
     .287840000000D+05 -.106170773506D-06 -.163736625161D+01 -.167638063431D-06
     .954427201484D+00  .236000000000D+03  .406015148686D+00 -.785532720591D-08
    -.233224000430D-09  .100000000000D+01  .222000000000D+04  .000000000000D+00
     .240000000000D+01  .000000000000D+00 -.135041773319D-07  .800000000000D+01
     .274500000000D+05  .400000000000D+01
25 22  7 24  7 59 44.0  .352788716555D-03  .443378667114D-11  .000000000000D+00
     .400000000000D+01  .836250000000D+02  .442804158856D-08  .299327028465D+01
     .414066016674D-05  .104523133487D-01  .919029116631D-05  .515364789581D+04
     .287840000000D+05  .186264514923D-07 -.621057583187D+00 -.199303030968D-06
     .956166829055D+00  .197375000000D+03  .100550427232D+01 -.770853537715D-08
    -.204294223960D-09  .100000000000D+01  .222000000000D+04  .000000000000D+00
     .240000000000D+01  .000000000000D+00  .558793544769D-08  .400000000000D+01
     .274500000000D+05  .400000000000D+01
2  22  7 24  9 59 44.0 -.650783069432D-03  .795807864051D-12  .000000000000D+00
     .180000000000D+02 -.527187500000D+02  .463233581252D-08 -.614380288182D+00
    -.274553894997D-05  .199623483932D-01  .328570604324D-05  .515487166214D+04
     .359840000000D+05 -.234693288803D-06  .140207338384D+01  .111758708954D-07
     .965989409633D+00  .322156250000D+03 -.140299611064D+01 -.863571685513D-08
    -.113219001740D-09  .100000000000D+01  .222000000000D+04  .000000000000D+00
     .240000000000D+01  .000000000000D+00 -.172294676304D-07  .180000000000D+02
     .288000000000D+05  .400000000000D+01
9  22  7 24  9 59 44.0 -.315806828439D-03  .397903932026D-11  .000000000000D+00
     .600000000000D+01 -.531250000000D+00  .458483383388D-08  .202117035397D+01
     .242143869400D-07  .226473307703D-02  .741891562939D-05  .515378551483D+04
     .359840000000D+05  .782310962677D-07 -.272802551801D+01  .633299350739D-07
     .954851095164D+00  .232375000000D+03  .190391676772D+01 -.788854287519D-08
     .442518432669D-09  .100000000000D+01  .222000000000D+04  .000000000000D+00
     .240000000000D+01  .000000000000D+00  .139698386192D-08  .600000000000D+01
     .288000000000D+05  .400000000000D+01
31 22  7 24  9 59 44.0 -.186971854419D-03 -.147792889038D-11  .000000000000D+00
     .900000000000D+01  .500000000000D+00  .479734268572D-08 -.185486785286D+01
    -.376254320145D-06  .104658529162D-01  .686012208462D-05  .515377412415D+04
     .359840000000D+05  .894069671631D-07 -.163742398274D+01 -.132247805595D-06
     .954425817563D+00  .240843750000D+03  .406063922375D+00 -.793890211571D-08
    -.928610108910D-10  .100000000000D+01  .222000000000D+04  .000000000000D+00
     .240000000000D+01  .000000000000D+00 -.135041773319D-07  .900000000000D+01
     .288000000000D+05  .400000000000D+01
25 22  7 24  9 59 44.0  .352820381522D-03  .443378667114D-11  .000000000000D+00
     .260000000000D+02  .742812500000D+02  .453626038202D-08 -.223975645444D+01
     .372901558876D-05  .104541768087D-01  .871159136295D-05  .515364440155D+04
     .359840000000D+05  .163912773132D-06 -.621114164469D+00 -.391155481339D-07
     .956165860603D+00  .208406250000D+03  .100554410904D+01 -.775603735580D-08
    -.439304013061D-10  .100000000000D+01  .222000000000D+04  .000000000000D+00
     .240000000000D+01  .000000000000D+00  .558793544769D-08  .260000000000D+02
     .288000000000D+05  .400000000000D+01
1  22  7 24 10  0  0.0  .315323472023D-03 -.727595761418D-11  .000000000000D+00
     .290000000000D+02 -.754375000000D+02  .408838458334D-08 -.691380725274D+00
    -.388361513615D-05  .120372634847D-01  .333413481712D-05  .515366203499D+04
     .360000000000D+05  .111758708954D-07  .149469867547D+01  .242143869400D-06
     .987945928691D+00  .327250000000D+03  .935746052139D+00 -.816676875013D-08
    -.317870383435D-09  .100000000000D+01  .222000000000D+04  .000000000000D+00
     .240000000000D+01  .000000000000D+00  .512227416039D-08  .290000000000D+02
     .288000000000D+05  .400000000000D+01
3  22  7 24 10  0  0.0 -.315316021442D-03 -.966338120634D-11  .000000000000D+00
     .150000000000D+02 -.870000000000D+02  .382265922910D-08 -.179619610573D+01
    -.447034835815D-05  .442531355657D-02  .932998955250D-05  .515359045219D+04
     .360000000000D+05  .111758708954D-06  .252839848622D+01 -.428408384323D-07
     .974901996650D+00  .208937500000D+03  .101022402786D+01 -.754710008130D-08
     .102861427448D-09  .100000000000D+01  .222000000000D+04  .000000000000D+00
     .240000000000D+01  .000000000000D+00  .186264514923D-08  .150000000000D+02
     .288000000000D+05  .400000000000D+01
5  22  7 24 10  0  0.0 -.902945175767D-04 -.136424205266D-11  .000000000000D+00
     .570000000000D+02 -.826562500000D+02  .418588864478D-08  .191195630717D+01
    -.448897480965D-05  .612610753160D-02  .902637839317D-05  .515376545525D+04
     .360000000000D+05 -.149011611938D-07  .248590084914D+01 -.134110450745D-06
     .961894049468D+00  .210000000000D+03  .106923688946D+01 -.782246869436D-08
     .460733477113D-10  .100000000000D+01  .222000000000D+04  .000000000000D+00
     .240000000000D+01  .000000000000D+00 -.111758708954D-07  .570000000000D+02
     .288000000000D+05  .400000000000D+01
